{
  "type": "FeatureCollection",
  "features": [
    {
      "type": "Feature",
      "properties": {
        "norad_id": 34350,
        "name": "IRIDIUM 33 DEB",
        "group": "iridium-33-debris",
        "lat": -86.02294048232173,
        "lon": -111.93317245557853,
        "alt_km": 762.3591399961433,
        "timestamp": "2025-12-17T21:39:46.074967+00:00",
        "meta_object_name": "IRIDIUM 33 DEB",
        "meta_object_id": "1997-051ES",
        "meta_epoch": "2025-12-17T12:40:13.196928",
        "meta_mean_motion": 14.45397938,
        "meta_eccentricity": 0.00231831,
        "meta_inclination": 86.3272,
        "meta_ra_of_asc_node": 0.7293,
        "meta_arg_of_pericenter": 120.4242,
        "meta_mean_anomaly": 359.5053,
        "meta_ephemeris_type": 0,
        "meta_classification_type": "U",
        "meta_norad_cat_id": 34350,
        "meta_element_set_no": 999,
        "meta_rev_at_epoch": 88362,
        "meta_bstar": 0.00027248042,
        "meta_mean_motion_dot": 9.81e-06,
        "meta_mean_motion_ddot": 0,
        "tle_line1": "1 34350U 97051ES  25351.52793052  .00000981  00000+0  27248-3 0  9999",
        "tle_line2": "2 34350  86.3272   0.7293 0023183 120.4242 359.5053 14.45397938883628"
      },
      "geometry": {
        "type": "Point",
        "coordinates": [
          -111.93317245557853,
          -86.02294048232173
        ]
      }
    },
    {
      "type": "Feature",
      "properties": {
        "norad_id": 34366,
        "name": "IRIDIUM 33 DEB",
        "group": "iridium-33-debris",
        "lat": 37.09969464782372,
        "lon": 49.82039568531282,
        "alt_km": 708.6104614305978,
        "timestamp": "2025-12-17T21:39:46.074975+00:00",
        "meta_object_name": "IRIDIUM 33 DEB",
        "meta_object_id": "1997-051FJ",
        "meta_epoch": "2025-12-17T15:27:08.430048",
        "meta_mean_motion": 14.54097613,
        "meta_eccentricity": 0.00228439,
        "meta_inclination": 86.3698,
        "meta_ra_of_asc_node": 47.1809,
        "meta_arg_of_pericenter": 124.3183,
        "meta_mean_anomaly": 359.4993,
        "meta_ephemeris_type": 0,
        "meta_classification_type": "U",
        "meta_norad_cat_id": 34366,
        "meta_element_set_no": 999,
        "meta_rev_at_epoch": 88253,
        "meta_bstar": 0.00072705325,
        "meta_mean_motion_dot": 3.101e-05,
        "meta_mean_motion_ddot": 0,
        "tle_line1": "1 34366U 97051FJ  25351.64384757  .00003101  00000+0  72705-3 0  9992",
        "tle_line2": "2 34366  86.3698  47.1809 0022843 124.3183 359.4993 14.54097613882532"
      },
      "geometry": {
        "type": "Point",
        "coordinates": [
          49.82039568531282,
          37.09969464782372
        ]
      }
    },
    {
      "type": "Feature",
      "properties": {
        "norad_id": 34375,
        "name": "IRIDIUM 33 DEB",
        "group": "iridium-33-debris",
        "lat": 1.726968329341307,
        "lon": -179.27358100339003,
        "alt_km": 858.1799282999,
        "timestamp": "2025-12-17T21:39:46.074985+00:00",
        "meta_object_name": "IRIDIUM 33 DEB",
        "meta_object_id": "1997-051FT",
        "meta_epoch": "2025-12-17T13:26:35.352096",
        "meta_mean_motion": 14.18001231,
        "meta_eccentricity": 0.01035674,
        "meta_inclination": 86.4323,
        "meta_ra_of_asc_node": 180.7567,
        "meta_arg_of_pericenter": 111.645,
        "meta_mean_anomaly": 304.0989,
        "meta_ephemeris_type": 0,
        "meta_classification_type": "U",
        "meta_norad_cat_id": 34375,
        "meta_element_set_no": 999,
        "meta_rev_at_epoch": 86780,
        "meta_bstar": 0.00036037752,
        "meta_mean_motion_dot": 7.98e-06,
        "meta_mean_motion_ddot": 0,
        "tle_line1": "1 34375U 97051FT  25351.56013139  .00000798  00000+0  36038-3 0  9994",
        "tle_line2": "2 34375  86.4323 180.7567 0103567 111.6450 304.0989 14.18001231867807"
      },
      "geometry": {
        "type": "Point",
        "coordinates": [
          -179.27358100339003,
          1.726968329341307
        ]
      }
    },
    {
      "type": "Feature",
      "properties": {
        "norad_id": 34376,
        "name": "IRIDIUM 33 DEB",
        "group": "iridium-33-debris",
        "lat": 56.62729390014685,
        "lon": 178.57846524812817,
        "alt_km": 661.7663622534255,
        "timestamp": "2025-12-17T21:39:46.074994+00:00",
        "meta_object_name": "IRIDIUM 33 DEB",
        "meta_object_id": "1997-051FU",
        "meta_epoch": "2025-12-17T11:15:00.720576",
        "meta_mean_motion": 14.6263273,
        "meta_eccentricity": 0.00277539,
        "meta_inclination": 86.2981,
        "meta_ra_of_asc_node": 4.4142,
        "meta_arg_of_pericenter": 150.9794,
        "meta_mean_anomaly": 209.2968,
        "meta_ephemeris_type": 0,
        "meta_classification_type": "U",
        "meta_norad_cat_id": 34376,
        "meta_element_set_no": 999,
        "meta_rev_at_epoch": 88076,
        "meta_bstar": 0.0010721746,
        "meta_mean_motion_dot": 5.502e-05,
        "meta_mean_motion_ddot": 0,
        "tle_line1": "1 34376U 97051FU  25351.46875834  .00005502  00000+0  10722-2 0  9991",
        "tle_line2": "2 34376  86.2981   4.4142 0027753 150.9794 209.2968 14.62632730880762"
      },
      "geometry": {
        "type": "Point",
        "coordinates": [
          178.57846524812817,
          56.62729390014685
        ]
      }
    },
    {
      "type": "Feature",
      "properties": {
        "norad_id": 34486,
        "name": "IRIDIUM 33 DEB",
        "group": "iridium-33-debris",
        "lat": -58.192727914698956,
        "lon": -164.520450408513,
        "alt_km": 593.9314510913346,
        "timestamp": "2025-12-17T21:39:46.075003+00:00",
        "meta_object_name": "IRIDIUM 33 DEB",
        "meta_object_id": "1997-051GB",
        "meta_epoch": "2025-12-17T01:34:32.789856",
        "meta_mean_motion": 14.95995352,
        "meta_eccentricity": 0.00138977,
        "meta_inclination": 86.393,
        "meta_ra_of_asc_node": 10.0283,
        "meta_arg_of_pericenter": 100.1337,
        "meta_mean_anomaly": 313.5239,
        "meta_ephemeris_type": 0,
        "meta_classification_type": "U",
        "meta_norad_cat_id": 34486,
        "meta_element_set_no": 999,
        "meta_rev_at_epoch": 89051,
        "meta_bstar": 0.0017072639,
        "meta_mean_motion_dot": 0.00019234,
        "meta_mean_motion_ddot": 0,
        "tle_line1": "1 34486U 97051GB  25351.06565729  .00019234  00000+0  17073-2 0  9991",
        "tle_line2": "2 34486  86.3930  10.0283 0013897 100.1337 313.5239 14.95995352890514"
      },
      "geometry": {
        "type": "Point",
        "coordinates": [
          -164.520450408513,
          -58.192727914698956
        ]
      }
    },
    {
      "type": "Feature",
      "properties": {
        "norad_id": 34487,
        "name": "IRIDIUM 33 DEB",
        "group": "iridium-33-debris",
        "lat": -5.059231100404096,
        "lon": 9.830059312149087,
        "alt_km": 762.2629201077998,
        "timestamp": "2025-12-17T21:39:46.075012+00:00",
        "meta_object_name": "IRIDIUM 33 DEB",
        "meta_object_id": "1997-051GC",
        "meta_epoch": "2025-12-17T08:26:40.670304",
        "meta_mean_motion": 14.43222071,
        "meta_eccentricity": 0.00330822,
        "meta_inclination": 86.3432,
        "meta_ra_of_asc_node": 10.3915,
        "meta_arg_of_pericenter": 114.0104,
        "meta_mean_anomaly": 261.6876,
        "meta_ephemeris_type": 0,
        "meta_classification_type": "U",
        "meta_norad_cat_id": 34487,
        "meta_element_set_no": 999,
        "meta_rev_at_epoch": 88315,
        "meta_bstar": 0.00016017609,
        "meta_mean_motion_dot": 5.62e-06,
        "meta_mean_motion_ddot": 0,
        "tle_line1": "1 34487U 97051GC  25351.35185961  .00000562  00000+0  16018-3 0  9993",
        "tle_line2": "2 34487  86.3432  10.3915 0033082 114.0104 261.6876 14.43222071883157"
      },
      "geometry": {
        "type": "Point",
        "coordinates": [
          9.830059312149087,
          -5.059231100404096
        ]
      }
    },
    {
      "type": "Feature",
      "properties": {
        "norad_id": 34488,
        "name": "IRIDIUM 33 DEB",
        "group": "iridium-33-debris",
        "lat": 44.01198811923991,
        "lon": 119.6911143074444,
        "alt_km": 470.8290467134984,
        "timestamp": "2025-12-17T21:39:46.075021+00:00",
        "meta_object_name": "IRIDIUM 33 DEB",
        "meta_object_id": "1997-051GD",
        "meta_epoch": "2025-12-17T06:57:02.777472",
        "meta_mean_motion": 15.30547446,
        "meta_eccentricity": 0.00117976,
        "meta_inclination": 86.3226,
        "meta_ra_of_asc_node": 303.5578,
        "meta_arg_of_pericenter": 43.8591,
        "meta_mean_anomaly": 316.3592,
        "meta_ephemeris_type": 0,
        "meta_classification_type": "U",
        "meta_norad_cat_id": 34488,
        "meta_element_set_no": 999,
        "meta_rev_at_epoch": 89309,
        "meta_bstar": 0.0036319963,
        "meta_mean_motion_dot": 0.00108809,
        "meta_mean_motion_ddot": 0,
        "tle_line1": "1 34488U 97051GD  25351.28961548  .00108809  00000+0  36320-2 0  9999",
        "tle_line2": "2 34488  86.3226 303.5578 0011797  43.8591 316.3592 15.30547446893099"
      },
      "geometry": {
        "type": "Point",
        "coordinates": [
          119.6911143074444,
          44.01198811923991
        ]
      }
    }
  ]
}